{"type":"FeatureCollection","features":[{"type":"Feature","properties":{"Title":"26/01/2019","Grid Reference":"SO 89846 84464","Easting":"389846","Northing":"284464","Postcode":"DY8 1XS","Address (near)":"DY8 1XS"},"geometry":{"type":"Point","coordinates":[-2.149452,52.45766]}},{"type":"Feature","properties":{"Title":"02/02/2019","Grid Reference":"ST 33333 64381","Easting":"333333","Northing":"164381","Postcode":"BS22 9UR"},"geometry":{"type":"Point","coordinates":[-2.957908,51.374068]}},{"type":"Feature","properties":{"Title":"15/02/2019","Grid Reference":"SE 71513 03056","Easting":"471513","Northing":"403056","Postcode":"DN9 2BW"},"geometry":{"type":"Point","coordinates":[-0.921295,53.519058]}},{"type":"Feature","properties":{"Title":"01/03/2019","Grid Reference":"SU 14785 84508","Easting":"414785","Northing":"184508","Postcode":"SN1 5AN","Address (near)":"The Rolleston, Curtis Street, Eastcott, Central Swindon South, Swindon, South West England, England, SN1 5AN, United Kingdom"},"geometry":{"type":"Point","coordinates":[-1.786704,51.558783]}},{"type":"Feature","properties":{"Title":"08/03/2019","Grid Reference":"TQ 31638 84731","Easting":"531638","Northing":"184731","Postcode":"N5 1RA","Address (near)":"N5 1RA"},"geometry":{"type":"Point","coordinates":[-0.10139,51.545621]}},{"type":"Feature","properties":{"Title":"02/03/2019","Grid Reference":"TG 23619 08018","Easting":"623619","Northing":"308018","Postcode":"NR1 1QH"},"geometry":{"type":"Point","coordinates":[1.304237,52.623434]}},{"type":"Feature","properties":{"Title":"09/03/2019","Grid Reference":"SO 95038 96623","Easting":"395038","Northing":"296623","Postcode":"WV14 7LJ"},"geometry":{"type":"Point","coordinates":[-2.073215,52.567053]}},{"type":"Feature","properties":{"Title":"15/03/2019","Grid Reference":"SP 34281 78920","Easting":"434281","Northing":"278920","Postcode":"CV1 5DU"},"geometry":{"type":"Point","coordinates":[-1.496014,52.406833]}},{"type":"Feature","properties":{"Title":"16/03/2019","Grid Reference":"SU 42258 11227","Easting":"442258","Northing":"111227","Postcode":"SO14 3AR"},"geometry":{"type":"Point","coordinates":[-1.399025,50.89842]}},{"type":"Feature","properties":{"Title":"29/03/2019","Grid Reference":"ST 48592 38006","Easting":"348592","Northing":"138006","Postcode":"BA6 9FT"},"geometry":{"type":"Point","coordinates":[-2.734889,51.138488]}},{"type":"Feature","properties":{"Title":"05/04/2019","Grid Reference":"SJ 83946 97499","Easting":"383946","Northing":"397499","Postcode":"M1 5WW"},"geometry":{"type":"Point","coordinates":[-2.241897,53.473724]}},{"type":"Feature","properties":{"Title":"06/04/2019","Grid Reference":"SE 28396 34903","Easting":"428396","Northing":"434903","Postcode":"LS6 1NY"},"geometry":{"type":"Point","coordinates":[-1.568725,53.809428]}},{"type":"Feature","properties":{"Title":"12/04/2019","Grid Reference":"NS 56888 67282","Easting":"256888","Northing":"667282","Postcode":"G12 8QX"},"geometry":{"type":"Point","coordinates":[-4.287858,55.877435]}},{"type":"Feature","properties":{"Title":"13/04/2019","Grid Reference":"SD 81897 63662","Easting":"381897","Northing":"463662","Postcode":"BD24 9DZ","Address (near)":"BD24 9DZ"},"geometry":{"type":"Point","coordinates":[-2.276653,54.068394]}},{"type":"Feature","properties":{"Title":"19/04/2019","Grid Reference":"SX 92014 92806","Easting":"292014","Northing":"92806","Postcode":"EX4 3LS"},"geometry":{"type":"Point","coordinates":[-3.530061,50.724257]}},{"type":"Feature","properties":{"Title":"20/04/2019","Grid Reference":"TL 46142 56875","Easting":"546142","Northing":"256875","Postcode":"CB1 7GX"},"geometry":{"type":"Point","coordinates":[0.138188,52.19032]}},{"type":"Feature","properties":{"Title":"27/04/2019","Grid Reference":"SK 56844 40193","Easting":"456844","Northing":"340193","Postcode":"NG1 5GG"},"geometry":{"type":"Point","coordinates":[-1.153752,52.955782]}},{"type":"Feature","properties":{"Title":"25/05/2019","Grid Reference":"ST 98604 11377","Easting":"398604","Northing":"111377","Postcode":"BH21 5HX"},"geometry":{"type":"Point","coordinates":[-2.019854,50.901314]}},{"type":"Feature","properties":{"Title":"22/06/2019","Grid Reference":"NZ 36471 65286","Easting":"436471","Northing":"565286","Postcode":"NE33 4BT","Address (near)":"WEST PARK, Stanhope Road, Cleadon Park, South Tyneside, Tyne and Wear, North East England, England, NE33 4BT, United Kingdom"},"geometry":{"type":"Point","coordinates":[-1.430075,54.980766]}},{"type":"Feature","properties":{"Title":"29/06/2019","Grid Reference":"SE 09556 25030","Easting":"409556","Northing":"425030","Postcode":"HX1 1RE","Address (near)":"HX1 1RE"},"geometry":{"type":"Point","coordinates":[-1.855168,53.721367]}},{"type":"Feature","properties":{"Title":"13/07/2019","Grid Reference":"TL 54027 80363","Easting":"554027","Northing":"280363","Address (near)":"Ely, East Cambridgeshire"},"geometry":{"type":"Point","coordinates":[0.264198,52.399197]}},{"type":"Feature","properties":{"Title":"10/08/2019","Grid Reference":"SK 34978 78534","Easting":"434978","Northing":"378534","Address (near)":"Dronfield, North East Derbyshire"},"geometry":{"type":"Point","coordinates":[-1.475072,53.302326]}},{"type":"Feature","properties":{"Title":"18/08/2019","Grid Reference":"SY 08547 97983","Easting":"308547","Northing":"97983","Postcode":"undefined","Address (near)":"undefined"},"geometry":{"type":"Point","coordinates":[-3.297159,50.773643]}},{"type":"Feature","properties":{"Title":"30/08/2019","Grid Reference":"SK 44490 27276","Easting":"444490","Northing":"327276","Postcode":"DE74 2NS","Address (near)":"DE74 2NS"},"geometry":{"type":"Point","coordinates":[-1.339421,52.840828]}},{"type":"Feature","properties":{"Title":"31/08/2019","Grid Reference":"NT 99836 53097","Easting":"399836","Northing":"653097","Address (near)":"Berwick-upon-Tweed, Northumberland"},"geometry":{"type":"Point","coordinates":[-2.002614,55.771229]}}]}